{
  "norad_id": 64520,
  "name": "KUIPER-00060",
  "history": [
    {
      "epoch": "2026-03-28T20:32:36.532032Z",
      "apogee_km": 630.0049452734402,
      "perigee_km": 629.1487427959764,
      "latitude_deg": 5.596211696274351e-05,
      "longitude_deg": 1.4459001404755414,
      "height_km": 630.3337444047875,
      "semi_major_axis_km": 7007.713844034708,
      "eccentricity": 6.109e-05,
      "inclination_deg": 51.9013,
      "raan_deg": 135.8685,
      "arg_perigee_deg": 91.4454,
      "mean_anomaly_deg": 268.6579,
      "mean_motion_rev_day": 14.79919944
    },
    {
      "epoch": "2026-03-30T03:20:14.328672Z",
      "apogee_km": 630.0409726683902,
      "perigee_km": 629.0626993068863,
      "latitude_deg": -9.842016586654957e-06,
      "longitude_deg": -107.3992943204512,
      "height_km": 630.2148527588888,
      "semi_major_axis_km": 7007.688835987638,
      "eccentricity": 6.98e-05,
      "inclination_deg": 51.902,
      "raan_deg": 130.1955,
      "arg_perigee_deg": 80.2213,
      "mean_anomaly_deg": 279.8828,
      "mean_motion_rev_day": 14.79927866
    },
    {
      "epoch": "2026-03-30T03:20:14.329536Z",
      "apogee_km": 630.0411128221676,
      "perigee_km": 629.0625591531098,
      "latitude_deg": -1.1629644340346153e-05,
      "longitude_deg": -107.39929932427992,
      "height_km": 630.2148289554669,
      "semi_major_axis_km": 7007.688835987638,
      "eccentricity": 6.982e-05,
      "inclination_deg": 51.902,
      "raan_deg": 130.1955,
      "arg_perigee_deg": 80.2213,
      "mean_anomaly_deg": 279.8828,
      "mean_motion_rev_day": 14.79927866
    },
    {
      "epoch": "2026-03-30T11:26:27.257568Z",
      "apogee_km": 630.0278597918423,
      "perigee_km": 629.0599589046433,
      "latitude_deg": 3.06672051249701e-05,
      "longitude_deg": 129.22126458708064,
      "height_km": 630.1867912102921,
      "semi_major_axis_km": 7007.6809093482425,
      "eccentricity": 6.906e-05,
      "inclination_deg": 51.9019,
      "raan_deg": 128.7027,
      "arg_perigee_deg": 77.6858,
      "mean_anomaly_deg": 282.4182,
      "mean_motion_rev_day": 14.79930377
    },
    {
      "epoch": "2026-03-30T19:32:40.130304Z",
      "apogee_km": 630.0214004182835,
      "perigee_km": 629.0499968288004,
      "latitude_deg": 2.8752154563548638e-05,
      "longitude_deg": 5.8418250531845315,
      "height_km": 630.1713278135187,
      "semi_major_axis_km": 7007.672698623542,
      "eccentricity": 6.931e-05,
      "inclination_deg": 51.9018,
      "raan_deg": 127.2097,
      "arg_perigee_deg": 76.855,
      "mean_anomaly_deg": 283.249,
      "mean_motion_rev_day": 14.79932978
    },
    {
      "epoch": "2026-03-31T06:53:22.059168Z",
      "apogee_km": 630.0137266047986,
      "perigee_km": 629.0336351819697,
      "latitude_deg": 4.366035519547724e-05,
      "longitude_deg": -166.88918808616845,
      "height_km": 630.1615144854242,
      "semi_major_axis_km": 7007.660680893384,
      "eccentricity": 6.993e-05,
      "inclination_deg": 51.9015,
      "raan_deg": 125.1193,
      "arg_perigee_deg": 77.243,
      "mean_anomaly_deg": 282.8611,
      "mean_motion_rev_day": 14.79936785
    },
    {
      "epoch": "2026-04-01T18:32:42.890496Z",
      "apogee_km": 629.7158548067646,
      "perigee_km": 629.415925123074,
      "latitude_deg": 2.211215744715417e-05,
      "longitude_deg": 10.239668746392177,
      "height_km": 630.1627717489237,
      "semi_major_axis_km": 7007.7028899649185,
      "eccentricity": 2.14e-05,
      "inclination_deg": 51.901,
      "raan_deg": 118.5493,
      "arg_perigee_deg": 1.0498,
      "mean_anomaly_deg": 359.0465,
      "mean_motion_rev_day": 14.79923414
    },
    {
      "epoch": "2026-04-02T18:51:22.567104Z",
      "apogee_km": 630.0844042992267,
      "perigee_km": 629.0754332172646,
      "latitude_deg": 4.1063881956321265e-05,
      "longitude_deg": 0.09724698695275266,
      "height_km": 630.061420587635,
      "semi_major_axis_km": 7007.716918758246,
      "eccentricity": 7.199e-05,
      "inclination_deg": 51.9014,
      "raan_deg": 114.0706,
      "arg_perigee_deg": 58.3633,
      "mean_anomaly_deg": 301.74,
      "mean_motion_rev_day": 14.7991897
    },
    {
      "epoch": "2026-04-03T11:03:48.602880Z",
      "apogee_km": 630.0594639914898,
      "perigee_km": 629.0419477365986,
      "latitude_deg": 6.181782825799898e-05,
      "longitude_deg": 113.33697351291386,
      "height_km": 630.0523889314978,
      "semi_major_axis_km": 7007.687705864044,
      "eccentricity": 7.26e-05,
      "inclination_deg": 51.9012,
      "raan_deg": 111.0844,
      "arg_perigee_deg": 61.2913,
      "mean_anomaly_deg": 298.8123,
      "mean_motion_rev_day": 14.79928224
    },
    {
      "epoch": "2026-04-04T11:22:27.270336Z",
      "apogee_km": 630.0623411289835,
      "perigee_km": 629.0005392069288,
      "latitude_deg": 4.411052583566076e-05,
      "longitude_deg": 103.19813815904855,
      "height_km": 630.022983605997,
      "semi_major_axis_km": 7007.668440167956,
      "eccentricity": 7.576e-05,
      "inclination_deg": 51.9013,
      "raan_deg": 106.6051,
      "arg_perigee_deg": 61.3549,
      "mean_anomaly_deg": 298.749,
      "mean_motion_rev_day": 14.79934327
    },
    {
      "epoch": "2026-04-05T10:03:50.875776Z",
      "apogee_km": 630.0545275262439,
      "perigee_km": 628.9593729297021,
      "latitude_deg": -4.902728650964487e-06,
      "longitude_deg": 117.73720199974086,
      "height_km": 629.9715671083011,
      "semi_major_axis_km": 7007.643950227973,
      "eccentricity": 7.814e-05,
      "inclination_deg": 51.9017,
      "raan_deg": 102.4244,
      "arg_perigee_deg": 59.0666,
      "mean_anomaly_deg": 301.0373,
      "mean_motion_rev_day": 14.79942085
    },
    {
      "epoch": "2026-04-06T07:07:59.718144Z",
      "apogee_km": 630.0582673957206,
      "perigee_km": 628.9221908693326,
      "latitude_deg": 5.383832280715472e-05,
      "longitude_deg": 156.95332469782915,
      "height_km": 629.9588866180738,
      "semi_major_axis_km": 7007.627229132526,
      "eccentricity": 8.106e-05,
      "inclination_deg": 51.9019,
      "raan_deg": 98.5426,
      "arg_perigee_deg": 60.7675,
      "mean_anomaly_deg": 299.3369,
      "mean_motion_rev_day": 14.79947382
    },
    {
      "epoch": "2026-04-07T05:49:24.471840Z",
      "apogee_km": 630.1288550539866,
      "perigee_km": 628.9791732662034,
      "latitude_deg": -3.3707564155792544e-05,
      "longitude_deg": 171.48785978853388,
      "height_km": 630.0847026762626,
      "semi_major_axis_km": 7007.691014160095,
      "eccentricity": 8.203e-05,
      "inclination_deg": 51.9021,
      "raan_deg": 94.3622,
      "arg_perigee_deg": 68.001,
      "mean_anomaly_deg": 292.1039,
      "mean_motion_rev_day": 14.79927176
    },
    {
      "epoch": "2026-04-08T04:30:49.129632Z",
      "apogee_km": 630.1531658463236,
      "perigee_km": 628.9704064451971,
      "latitude_deg": -3.7264708179659777e-06,
      "longitude_deg": -173.97551312633394,
      "height_km": 630.1038962135505,
      "semi_major_axis_km": 7007.69878614576,
      "eccentricity": 8.439e-05,
      "inclination_deg": 51.9019,
      "raan_deg": 90.1834,
      "arg_perigee_deg": 69.8373,
      "mean_anomaly_deg": 290.268,
      "mean_motion_rev_day": 14.79924714
    },
    {
      "epoch": "2026-04-09T16:10:10.486272Z",
      "apogee_km": 630.0849912337198,
      "perigee_km": 629.0114138606887,
      "latitude_deg": 4.326852531570574e-05,
      "longitude_deg": 3.1502959425859323,
      "height_km": 630.1056127392422,
      "semi_major_axis_km": 7007.6852025472035,
      "eccentricity": 7.66e-05,
      "inclination_deg": 51.9018,
      "raan_deg": 83.6125,
      "arg_perigee_deg": 69.4278,
      "mean_anomaly_deg": 290.6767,
      "mean_motion_rev_day": 14.79929017
    }
  ]
}